{"spkid": "50728955", "covariance": {"labels": ["e", "q", "tp", "node", "peri", "i"], "elements": [{"units": null, "title": "eccentricity", "value": ".2212373177342414", "name": "e", "sigma": 1.85615140589624e-08, "label": "e"}, {"sigma": 2.00794255692119e-08, "name": "q", "units": "au", "title": "perihelion distance", "value": ".9571353816214615", "label": "q"}, {"label": "tp", "title": "time of perihelion passage", "value": "2457911.653130041348", "units": "TDB", "sigma": 1.22664042379008e-05, "name": "tp"}, {"label": "node", "name": "om", "sigma": 8.86501870003241e-05, "value": "284.8350249522362", "title": "longitude of the ascending node", "units": "deg"}, {"label": "peri", "title": "argument of perihelion", "value": "193.7430988951565", "units": "deg", "sigma": 8.90401311135233e-05, "name": "w"}, {"label": "i", "units": "deg", "value": "2.222377019246094", "title": "inclination", "sigma": 1.40653573214569e-06, "name": "i"}], "data": [["3.445298041610605E-16", "-3.520610472923538E-16", "1.683964434996805E-13", "7.256489143526604E-14", "2.344030769055556E-14", "-7.723532064847672E-15"], ["-3.520610472923538E-16", "4.031833311895214E-16", "-1.363248986470067E-13", "-8.764797895410868E-14", "-7.233865282581867E-15", "8.570529748016342E-15"], ["1.683964434996805E-13", "-1.363248986470067E-13", "1.504646729275903E-10", "-2.835167339246756E-11", "1.137211597577576E-10", "-4.448273809435743E-12"], ["7.256489143526604E-14", "-8.764797895410868E-14", "-2.835167339246756E-11", "7.858855655192425E-9", "-7.862600069932511E-9", "5.097905391553875E-11"], ["2.344030769055556E-14", "-7.233865282581867E-15", "1.137211597577576E-10", "-7.862600069932511E-9", "7.928144948713414E-9", "-5.449098656279186E-11"], ["-7.723532064847672E-15", "8.570529748016342E-15", "-4.448273809435743E-12", "5.097905391553875E-11", "-5.449098656279186E-11", "1.978342765802616E-12"]], "epoch": "2457666.5"}, "elements": [{"title": "eccentricity", "value": ".2212698216326249", "units": null, "name": "e", "sigma": "1.8503E-8", "label": "e"}, {"label": "a", "name": "a", "sigma": "9.5883E-9", "title": "semi-major axis", "value": "1.229088167826764", "units": "au"}, {"label": "q", "title": "perihelion distance", "value": ".9571280481609666", "units": "au", "name": "q", "sigma": "2.009E-8"}, {"label": "i", "name": "i", "sigma": "1.4062E-6", "units": "deg", "value": "2.222092788225828", "title": "inclination; angle with respect to x-y ecliptic plane"}, {"label": "node", "sigma": "8.867E-5", "name": "om", "title": "longitude of the ascending node", "value": "284.7696822295437", "units": "deg"}, {"units": "deg", "value": "193.8315355930928", "title": "argument of perihelion", "name": "w", "sigma": "8.9061E-5", "label": "peri"}, {"units": "deg", "title": "mean anomaly", "value": "218.8996370873287", "name": "ma", "sigma": "3.5303E-5", "label": "M"}, {"label": "tp", "units": "TDB", "title": "time of perihelion passage", "value": "2461395.573651590360", "name": "tp", "sigma": "5.106E-5"}, {"value": "497.7061229530203", "title": "sidereal orbital period", "units": "d", "name": "per", "sigma": "5.824E-6", "label": "period"}, {"label": "n", "title": "mean motion", "value": ".7233184069828719", "units": "deg/d", "name": "n", "sigma": "8.4641E-9"}, {"title": "aphelion distance", "value": "1.501048287492562", "units": "au", "sigma": "1.171E-8", "name": "ad", "label": "Q"}], "epoch": "2461200.5"}